OBJECT_NAME,OBJECT_ID,EPOCH,MEAN_MOTION,ECCENTRICITY,INCLINATION,RA_OF_ASC_NODE,ARG_OF_PERICENTER,MEAN_ANOMALY,EPHEMERIS_TYPE,CLASSIFICATION_TYPE,NORAD_CAT_ID,ELEMENT_SET_NO,REV_AT_EPOCH,BSTAR,MEAN_MOTION_DOT,MEAN_MOTION_DDOT
CUTE-1 (CO-55),2003-031E,2026-07-22T00:29:25.515744,14.24354732,.00108651,98.6746,211.1424,85.1990,275.0430,0,U,27844,999,19663,.12598932E-3,.248E-5,0
CUBESAT XI-IV (CO-57),2003-031J,2026-07-21T11:08:22.386336,14.23636890,.00107004,98.6777,210.2780,103.0346,257.2027,0,U,27848,999,19625,.94003799E-4,.171E-5,0
CUBESAT XI-V,2005-043F,2026-07-21T08:59:40.719840,14.72712744,.0015344,98.3024,358.7230,97.2573,263.0378,0,U,28895,999,10678,.15413557E-3,.932E-5,0
CUTE-1.7+APD II (CO-65),2008-021C,2026-07-22T05:55:04.048032,15.09741550,.00069267,97.8297,185.4067,269.3303,90.7131,0,U,32785,999,99048,.29868457E-3,.4754E-4,0
CANX-2,2008-021H,2026-07-21T09:06:03.319776,15.05828715,.00086138,97.8661,182.8312,293.0551,66.9766,0,U,32790,999,98995,.15696636E-3,.2213E-4,0
SEEDS II (CO-66),2008-021J,2026-07-21T11:05:37.720896,15.33809298,.00037431,97.7536,202.0274,143.8472,216.3023,0,U,32791,999,99254,.53390583E-3,.17397E-3,0
SWISSCUBE,2009-051B,2026-07-21T05:45:20.945664,14.62538248,.00080636,98.4000,110.7173,103.0186,257.1915,0,U,35932,999,89413,.13969E-3,.659E-5,0
BEESAT-1,2009-051C,2026-07-22T05:24:34.565184,14.61769634,.00064438,98.3928,111.2816,111.6520,248.5367,0,U,35933,999,89430,.13356672E-3,.617E-5,0
ITUPSAT1,2009-051E,2026-07-21T23:21:05.459904,14.60485984,.0008455,98.4011,110.1798,124.3905,235.8095,0,U,35935,999,89381,.13786809E-3,.62E-5,0
TISAT 1,2010-035E,2026-07-21T14:18:15.518016,15.32897907,.00048236,98.0708,152.2342,107.8741,252.3026,0,U,36799,999,87297,.63721602E-3,.20197E-3,0
STRAND-1,2013-009E,2026-07-22T00:08:31.036992,14.37181893,.00097006,98.3941,22.3864,122.8343,237.3779,0,U,39090,999,70206,.95889297E-4,.243E-5,0
BRITE-AUSTRIA,2013-009F,2026-07-22T00:48:50.316480,14.36554513,.00111077,98.4015,21.6105,131.8384,228.3753,0,U,39091,999,70205,.62805575E-4,.142E-5,0
NEE-01 PEGASO,2013-018B,2026-07-21T21:32:56.685984,14.93813562,.00135033,98.1266,348.2068,54.1935,306.0536,0,U,39151,999,71588,.21195884E-3,.2191E-4,0
POPACS 2,2013-055E,2026-07-21T04:28:12.081216,14.92193040,.04144141,80.9903,105.2569,84.6661,280.1681,0,U,39269,999,66828,.29070188E-3,.1781E-3,-.90713E-6
POPACS 3,2013-055F,2026-07-21T22:45:55.106208,14.56772916,.05478787,81.0010,191.4730,324.0661,32.4808,0,U,39270,999,64361,.24503145E-3,.1027E-3,0
ZACUBE-1 (TSHEPISOSAT),2013-066B,2026-07-20T20:47:42.553536,15.01347026,.00440791,97.7999,164.3670,137.0238,223.4444,0,U,39417,999,68578,.14536999E-3,.1847E-4,0
WNISAT-1,2013-066H,2026-07-22T05:02:02.837184,14.58130952,.01641885,97.7245,349.8878,121.3698,240.3685,0,U,39423,999,67183,.1662033E-3,.874E-5,0
TRITON-1,2013-066M,2026-07-22T06:37:00.529248,14.81812136,.00911083,97.8211,112.2796,119.2947,241.7409,0,U,39427,999,67928,.15260863E-3,.1239E-4,0
GOMX-1,2013-066Q,2026-07-22T06:03:30.268224,14.69551236,.01276589,97.6470,41.5023,325.4770,33.8194,0,U,39430,999,67506,.87728634E-4,.536E-5,0
CUBEBUG-2 (LO-74),2013-066AA,2026-07-22T07:04:20.987040,14.94001241,.00554484,97.8917,152.4311,271.2491,88.2376,0,U,39440,999,68223,.24278153E-3,.2604E-4,0
NEE-02 KRYSAOR,2013-066AB,2026-07-22T06:35:27.347712,14.86759539,.0064824,97.8896,142.2439,315.7839,43.8206,0,U,39441,999,68141,.18417581E-3,.1643E-4,0
FUNCUBE-1 (AO-73),2013-066AE,2026-07-21T20:29:21.960096,15.09885034,.00381133,97.8301,175.0373,86.0733,274.4851,0,U,39444,999,68489,.47205108E-3,.7711E-4,0
UWE-3,2013-066AG,2026-07-21T20:04:24.811392,14.97233886,.00477658,97.8727,159.1532,201.8178,158.1010,0,U,39446,999,68276,.26824669E-3,.3114E-4,0
BRITE-CA1 (TORONTO),2014-033L,2026-07-21T08:23:05.265600,14.72731418,.00789328,97.9778,330.6555,166.5957,193.7373,0,U,40020,999,64724,.12831632E-3,.807E-5,0
DUCHIFAT-1,2014-033M,2026-07-21T17:28:25.843296,15.72417512,.00036258,98.0415,266.9561,228.7731,131.3218,0,U,40021,999,66116,.12189574E-2,.164629E-2,0
NANOSATC-BR1,2014-033Q,2026-07-22T02:00:44.671104,15.32485208,.00050231,98.0713,238.5904,80.3934,279.7874,0,U,40024,999,65932,.59621354E-3,.18646E-3,0
QB50P1,2014-033R,2026-07-22T06:31:54.462432,15.18741121,.00105567,98.0974,216.8915,104.1834,256.0572,0,U,40025,999,65835,.40318962E-3,.8312E-4,0
QB50P2,2014-033Y,2026-07-20T23:23:06.435456,15.15553719,.00091447,98.0771,200.9707,67.6874,292.5326,0,U,40032,999,65778,.24765819E-3,.4626E-4,0
PERSEUS-M2,2014-033AD,2026-07-22T06:08:04.222752,14.95594899,.00114999,97.9977,154.5160,176.8968,183.2325,0,U,40037,999,65602,.47306379E-4,.464E-5,0
PERSEUS-M1,2014-033AF,2026-07-22T07:01:20.889696,14.95729514,.00114663,97.9652,148.0056,173.4533,186.6839,0,U,40039,999,65588,.71062399E-4,.731E-5,0
